{"uri": "osm:node:30941606", "lat": 45.8168426, "lon": 6.7249451, "tags": {"addr:city": "Les Contamines-Montjoie", "addr:country": "FR", "addr:housenumber": "22", "addr:postcode": "74170", "addr:street": "Route du Plan du Moulin", "contact:email": "chaletdescontamines@ffcam.fr", "contact:phone": "+33 4 50 47 00 88", "contact:website": "https://chaletdescontamines.ffcam.fr", "ele": "1164", "name": "Chalet du CAF Contamines", "operator": "CAF", "tourism": "alpine_hut"}, "type": "alpine_hut", "ele": "1164", "url": "https://chaletdescontamines.ffcam.fr", "name": "Chalet du CAF Contamines"}
{"uri": "osm:node:33519409", "lat": 47.7945148, "lon": 15.588133, "tags": {"addr:city": "St. Aegyd am Neuwalde", "addr:postcode": "3193", "ele": "1499", "internet_access": "no", "name": "Gippelh\u00fctte", "note": "Bewirtschaftet w\u00e4hrend der Weidezeit ca. Mitte Juni bis Mitte September, N\u00e4chtigung m\u00f6glich: (16 Personen Lager), Mittwoch Ruhetag", "operator": "Hasler Anita", "phone": "+43 664 2120061", "seasonal": "summer", "source": "http://www.staegyd.at;local_knowledge", "tourism": "alpine_hut", "website": "http://www.staegyd.at/Gippelhuette_1500_m_Seehoehe"}, "type": "alpine_hut", "ele": "1499", "url": "http://www.staegyd.at/Gippelhuette_1500_m_Seehoehe", "name": "Gippelh\u00fctte"}
{"uri": "osm:node:59264046", "lat": 46.4375022, "lon": 15.4600805, "tags": {"ele": "1181", "name": "\u0160tuhecov dom", "tourism": "alpine_hut"}, "type": "alpine_hut", "ele": "1181", "url": null, "name": "\u0160tuhecov dom"}
